$$SOE
2460735.500000000, A.D. 2025-Mar-01 00:00:00.0000, -1.357052293812891E+08, 4.276400427646443E+08, 2.812947923319763E+07,
2460742.500000000, A.D. 2025-Mar-08 00:00:00.0000, -1.457625191848022E+08, 4.244197483369153E+08, 2.672418366143155E+07,
2460749.500000000, A.D. 2025-Mar-15 00:00:00.0000, -1.557417643417947E+08, 4.209728254947978E+08, 2.530458694827279E+07,
2460756.500000000, A.D. 2025-Mar-22 00:00:00.0000, -1.656376468352033E+08, 4.173011502086185E+08, 2.387145145135540E+07,
2460763.500000000, A.D. 2025-Mar-29 00:00:00.0000, -1.754449040935340E+08, 4.134067366417307E+08, 2.242554766204700E+07,
2460770.500000000, A.D. 2025-Apr-05 00:00:00.0000, -1.851583322006890E+08, 4.092917344848987E+08, 2.096765345192051E+07,
2460777.500000000, A.D. 2025-Apr-12 00:00:00.0000, -1.947727892672386E+08, 4.049584271371379E+08, 1.949855341534519E+07,
2460784.500000000, A.D. 2025-Apr-19 00:00:00.0000, -2.042831991432562E+08, 4.004092298548693E+08, 1.801903825383127E+07,
2460791.500000000, A.D. 2025-Apr-26 00:00:00.0000, -2.136845551950248E+08, 3.956466876694411E+08, 1.652990416126212E+07,
2460798.500000000, A.D. 2025-May-03 00:00:00.0000, -2.229719240264828E+08, 3.906734730961118E+08, 1.503195220190299E+07,
2460805.500000000, A.D. 2025-May-10 00:00:00.0000, -2.321404491115821E+08, 3.854923836476451E+08, 1.352598768007833E+07,
2460812.500000000, A.D. 2025-May-17 00:00:00.0000, -2.411853542957518E+08, 3.801063391162761E+08, 1.201281949565828E+07,
2460819.500000000, A.D. 2025-May-24 00:00:00.0000, -2.501019469876631E+08, 3.745183785745236E+08, 1.049325946586210E+07,
2460826.500000000, A.D. 2025-May-31 00:00:00.0000, -2.588856206190102E+08, 3.687316574108238E+08, 8.968121601434991E+06,
2460833.500000000, A.D. 2025-Jun-07 00:00:00.0000, -2.675318567696841E+08, 3.627494456103300E+08, 7.438221473401710E+06,
2460840.500000000, A.D. 2025-Jun-14 00:00:00.0000, -2.760362293197254E+08, 3.565751266212522E+08, 5.904375833627716E+06,
2460847.500000000, A.D. 2025-Jun-21 00:00:00.0000, -2.843944094057670E+08, 3.502121935417204E+08, 4.367402111146539E+06,
2460854.500000000, A.D. 2025-Jun-28 00:00:00.0000, -2.926021680489647E+08, 3.436642443948553E+08, 2.828117642738223E+06,
2460861.500000000, A.D. 2025-Jul-05 00:00:00.0000, -3.006553779702153E+08, 3.369349786541849E+08, 1.287338954111725E+06,
2460868.500000000, A.D. 2025-Jul-12 00:00:00.0000, -3.085500157817885E+08, 3.300281942221066E+08, -2.541188640941232E+05,
2460875.500000000, A.D. 2025-Jul-19 00:00:00.0000, -3.162821643627012E+08, 3.229477842929454E+08, -1.795442748975426E+06,
2460882.500000000, A.D. 2025-Jul-26 00:00:00.0000, -3.238480152054159E+08, 3.156977340499614E+08, -3.335822249616504E+06,
2460889.500000000, A.D. 2025-Aug-02 00:00:00.0000, -3.312438706666884E+08, 3.082821172240443E+08, -4.874450106219888E+06,
2460896.500000000, A.D. 2025-Aug-09 00:00:00.0000, -3.384661460977721E+08, 3.007050925058086E+08, -6.410522826525897E+06,
2460903.500000000, A.D. 2025-Aug-16 00:00:00.0000, -3.455113717759694E+08, 2.929708997542956E+08, -7.943241270818815E+06,
2460910.500000000, A.D. 2025-Aug-23 00:00:00.0000, -3.523761943441028E+08, 2.850838560251099E+08, -9.471811270071507E+06,
2460917.500000000, A.D. 2025-Aug-30 00:00:00.0000, -3.590573774286429E+08, 2.770483521380926E+08, -1.099544424811223E+07,
2460924.500000000, A.D. 2025-Sep-06 00:00:00.0000, -3.655518028555787E+08, 2.688688507910398E+08, -1.251335763520457E+07,
2460931.500000000, A.D. 2025-Sep-13 00:00:00.0000, -3.718564741365800E+08, 2.605498837443432E+08, -1.402477512218204E+07,
2460938.500000000, A.D. 2025-Sep-20 00:00:00.0000, -3.779685189514731E+08, 2.520960464395321E+08, -1.552892718898970E+07,
2460945.500000000, A.D. 2025-Sep-27 00:00:00.0000, -3.838851895675100E+08, 2.435119931677956E+08, -1.702505174942689E+07,
2460952.500000000, A.D. 2025-Oct-04 00:00:00.0000, -3.896038632144535E+08, 2.348024333334231E+08, -1.851239468259367E+07,
2460959.500000000, A.D. 2025-Oct-11 00:00:00.0000, -3.951220427906395E+08, 2.259721278766960E+08, -1.999021029356222E+07,
2460966.500000000, A.D. 2025-Oct-18 00:00:00.0000, -4.004373576158723E+08, 2.170258855880438E+08, -2.145776175112947E+07,
2460973.500000000, A.D. 2025-Oct-25 00:00:00.0000, -4.055475640912648E+08, 2.079685593288876E+08, -2.291432151380523E+07,
2460980.500000000, A.D. 2025-Nov-01 00:00:00.0000, -4.104505462278572E+08, 1.988050421782603E+08, -2.435917174576711E+07,
2460987.500000000, A.D. 2025-Nov-08 00:00:00.0000, -4.151443160127245E+08, 1.895402634777581E+08, -2.579160472824968E+07,
2460994.500000000, A.D. 2025-Nov-15 00:00:00.0000, -4.196270134691788E+08, 1.801791847213824E+08, -2.721092328484011E+07,
2461001.500000000, A.D. 2025-Nov-22 00:00:00.0000, -4.238969060127091E+08, 1.707267955163837E+08, -2.861644123995175E+07,
2461008.500000000, A.D. 2025-Nov-29 00:00:00.0000, -4.279523872594395E+08, 1.611881107559977E+08, -3.000748380398180E+07,
2461015.500000000, A.D. 2025-Dec-06 00:00:00.0000, -4.317919775683823E+08, 1.515681688734022E+08, -3.138338768776559E+07,
2461022.500000000, A.D. 2025-Dec-13 00:00:00.0000, -4.354143258880215E+08, 1.418720278124634E+08, -3.274350126199837E+07,
2461029.500000000, A.D. 2025-Dec-20 00:00:00.0000, -4.388182094155318E+08, 1.321047597438476E+08, -3.408718499825077E+07,
2461036.500000000, A.D. 2025-Dec-27 00:00:00.0000, -4.420025321433535E+08, 1.222714471204643E+08, -3.541381188081679E+07,
2461043.500000000, A.D. 2026-Jan-03 00:00:00.0000, -4.449663237564040E+08, 1.123771794592210E+08, -3.672276770595352E+07,
2461050.500000000, A.D. 2026-Jan-10 00:00:00.0000, -4.477087387749693E+08, 1.024270501742785E+08, -3.801345133436123E+07,
2461057.500000000, A.D. 2026-Jan-17 00:00:00.0000, -4.502290557145717E+08, 9.242615337447153E+07, -3.928527492579788E+07,
2461064.500000000, A.D. 2026-Jan-24 00:00:00.0000, -4.525266761884325E+08, 8.237958065124635E+07, -4.053766416110390E+07,
2461071.500000000, A.D. 2026-Jan-31 00:00:00.0000, -4.546011239328473E+08, 7.229241785307473E+07, -4.177005845442232E+07,
2461078.500000000, A.D. 2026-Feb-07 00:00:00.0000, -4.564520436978984E+08, 6.216974179221740E+07, -4.298191116602512E+07,
2461085.500000000, A.D. 2026-Feb-14 00:00:00.0000, -4.580791997543999E+08, 5.201661687164072E+07, -4.417268984032224E+07,
2461092.500000000, A.D. 2026-Feb-21 00:00:00.0000, -4.594824736332241E+08, 4.183809221196540E+07, -4.534187645752990E+07,
2461099.500000000, A.D. 2026-Feb-28 00:00:00.0000, -4.606618621854068E+08, 3.163920043411887E+07, -4.648896750533758E+07,
2461106.500000000, A.D. 2026-Mar-07 00:00:00.0000, -4.616174780261071E+08, 2.142495614929524E+07, -4.761347384151000E+07,
2461113.500000000, A.D. 2026-Mar-14 00:00:00.0000, -4.623495495917631E+08, 1.120035182580691E+07, -4.871492079314040E+07,
2461120.500000000, A.D. 2026-Mar-21 00:00:00.0000, -4.628584190300093E+08, 9.703539333368503E+05, -4.979284841903088E+07,
2461127.500000000, A.D. 2026-Mar-28 00:00:00.0000, -4.631445399330906E+08, -9.260099606386214E+06, -5.084681166634429E+07,
2461134.500000000, A.D. 2026-Apr-04 00:00:00.0000, -4.632084755219468E+08, -1.948610162894816E+07, -5.187638044515504E+07,
2461141.500000000, A.D. 2026-Apr-11 00:00:00.0000, -4.630508970117393E+08, -2.970277795684580E+07, -5.288113967582032E+07,
2461148.500000000, A.D. 2026-Apr-18 00:00:00.0000, -4.626725820039177E+08, -3.990528965588780E+07, -5.386068932463931E+07,
2461155.500000000, A.D. 2026-Apr-25 00:00:00.0000, -4.620744128629984E+08, -5.008883530367085E+07, -5.481464443108485E+07,
2461162.500000000, A.D. 2026-May-02 00:00:00.0000, -4.612573750512229E+08, -6.024865329981419E+07, -5.574263513219078E+07,
2461169.500000000, A.D. 2026-May-09 00:00:00.0000, -4.602225553002304E+08, -7.038002428422408E+07, -5.664430670133861E+07,
2461176.500000000, A.D. 2026-May-16 00:00:00.0000, -4.589711392452759E+08, -8.047827352507117E+07, -5.751931962521590E+07,
2461183.500000000, A.D. 2026-May-23 00:00:00.0000, -4.575044084732416E+08, -9.053877225422956E+07, -5.836734964052898E+07,
2461190.500000000, A.D. 2026-May-30 00:00:00.0000, -4.558237390658233E+08, -1.005569376312562E+08, -5.918808751419774E+07,
2461197.500000000, A.D. 2026-Jun-06 00:00:00.0000, -4.539306019592859E+08, -1.105282346105584E+08, -5.998123880634488E+07,
2461204.500000000, A.D. 2026-Jun-13 00:00:00.0000, -4.518265614594170E+08, -1.204481795127445E+08, -6.074652393696331E+07,
2461211.500000000, A.D. 2026-Jun-20 00:00:00.0000, -4.495132724148943E+08, -1.303123423728776E+08, -6.148367827133003E+07,
2461218.500000000, A.D. 2026-Jun-27 00:00:00.0000, -4.469924777477750E+08, -1.401163484054149E+08, -6.219245209596767E+07,
2461225.500000000, A.D. 2026-Jul-04 00:00:00.0000, -4.442660063419979E+08, -1.498558793621634E+08, -6.287261054858343E+07,
2461232.500000000, A.D. 2026-Jul-11 00:00:00.0000, -4.413357710377235E+08, -1.595266749173222E+08, -6.352393353653166E+07,
2461239.500000000, A.D. 2026-Jul-18 00:00:00.0000, -4.382037666413238E+08, -1.691245340563229E+08, -6.414621565096080E+07,
2461246.500000000, A.D. 2026-Jul-25 00:00:00.0000, -4.348720679298424E+08, -1.786453164681480E+08, -6.473926607967450E+07,
2461253.500000000, A.D. 2026-Aug-01 00:00:00.0000, -4.313428276055391E+08, -1.880849439911532E+08, -6.530290852814794E+07,
2461260.500000000, A.D. 2026-Aug-08 00:00:00.0000, -4.276182739891725E+08, -1.974394021494905E+08, -6.583698117225657E+07,
2461267.500000000, A.D. 2026-Aug-15 00:00:00.0000, -4.237007080397906E+08, -2.067047413304605E+08, -6.634133664455391E+07,
2461274.500000000, A.D. 2026-Aug-22 00:00:00.0000, -4.195925004638576E+08, -2.158770763821071E+08, -6.681584188472666E+07,
2461281.500000000, A.D. 2026-Aug-29 00:00:00.0000, -4.152960912040311E+08, -2.249525860050796E+08, -6.726037775666505E+07,
2461288.500000000, A.D. 2026-Sep-05 00:00:00.0000, -4.108139891761389E+08, -2.339275148090681E+08, -6.767483886278075E+07,
2461295.500000000, A.D. 2026-Sep-12 00:00:00.0000, -4.061487698021150E+08, -2.427981755396332E+08, -6.805913357724956E+07,
$$EOE